COSMOS 1743             
1 16719U 86034A   25306.45439661  .00027683  00000+0  50274-3 0  9995
2 16719  82.5390 206.3394 0008732  48.7401 311.4600 15.49374407160493
SL-14 R/B               
1 16792U 86046B   25306.43255412  .00000623  00000+0  69266-4 0  9994
2 16792  82.4842 200.3739 0021726 290.3601  69.5280 14.85423740107510
SL-14 R/B               
1 16882U 86055B   25307.77141494  .00000718  00000+0  80156-4 0  9992
2 16882  82.5205 244.9837 0019936  32.9500 346.4617 14.85463435100671
AJISAI (EGS)            
1 16908U 86061A   25307.80811345 -.00000106  00000+0 -59562-4 0  9991
2 16908  50.0073 120.4293 0011147 327.6483 164.3753 12.44514087452320
COSMOS 1812             
1 17295U 87003A   25306.48150781  .00060769  00000+0  55405-3 0  9991
2 17295  82.4904 335.3259 0003650 168.2230 191.9116 15.67655791124332
SL-14 R/B               
1 17567U 87024B   25306.44479977  .00000668  00000+0  73571-4 0  9990
2 17567  82.5306 212.2997 0017470 326.7767  33.2351 14.85962140 69238
COSMOS 1833             
1 17589U 87027A   25306.22520586 -.00000313  00000+0 -14171-3 0  9995
2 17589  70.9161 233.9425 0020670  29.2030 331.0242 14.13024192992300
SL-16 R/B               
1 17590U 87027B   25306.35706645  .00000163  00000+0  10452-3 0  9992
2 17590  71.0018 184.8106 0006816 302.2096  57.8366 14.17142644997343
SL-14 R/B               
1 17912U 87038B   25307.58708803  .00000713  00000+0  80232-4 0  9991
2 17912  82.5027  55.5683 0018407 217.9830 142.0089 14.85198645 60515
COSMOS 1844             
1 17973U 87041A   25307.73885105  .00000394  00000+0  22929-3 0  9993
2 17973  70.8975 299.8305 0032249 214.8720 145.0290 14.14511571985772
SL-14 R/B               
1 18153U 87055B   25307.72059941  .00000630  00000+0  69973-4 0  9993
2 18153  82.4964 107.7602 0022134  71.4326 288.9292 14.85455803 51235
COSMOS 1867             
1 18187U 87060A   25307.68939372  .00000012  00000+0  42293-4 0  9996
2 18187  65.0101 299.5585 0013741 267.2385  92.7127 14.31476058  1909
